NORAD_CAT_ID,OBJECT_NAME,OBJECT_TYPE,EPOCH,MEAN_MOTION,ECCENTRICITY,INCLINATION,RA_OF_ASC_NODE,ARG_OF_PERICENTER,MEAN_ANOMALY,BSTAR,MEAN_MOTION_DOT,MEAN_MOTION_DDOT,TLE_LINE0,TLE_LINE1,TLE_LINE2,SEMIMAJOR_AXIS,PERIOD,APOGEE,PERIGEE,DECAYED
52360.0,STARLINK-3824,PAYLOAD,2022-12-14 11:07:48,15.08838381,0.0002402,53.2184,91.8647,35.94300000000001,324.1724,8.7716e-05,1.108e-05,0.0,0 STARLINK-3824,1 52360U 22045AF  22348.46375385  .00001108  00000-0  87716-4 0  9992,2 52360  53.2184  91.8647 0002402  35.9430 324.1724 15.08838381 37589,6917.885,95.438,541.4119999999998,538.089,0.0
52360.0,STARLINK-3824,PAYLOAD,2022-12-14 15:53:58,15.0883318,0.0002472,53.2183,90.9725,29.9147,330.1986,0.00010679,1.411e-05,0.0,0 STARLINK-3824,1 52360U 22045AF  22348.66247696  .00001411  00000-0  10679-3 0  9997,2 52360  53.2183  90.9725 0002472  29.9147 330.1986 15.08833180 37613,6917.901,95.438,541.476,538.056,0.0
52360.0,STARLINK-3824,PAYLOAD,2022-12-15 14:09:21,15.08843884,0.0002258,53.2172,86.8085,33.8129,326.3007,8.6242e-05,1.085e-05,0.0,0 STARLINK-3824,1 52360U 22045AF  22349.58983100  .00001085  00000-0  86242-4 0  9993,2 52360  53.2172  86.8085 0002258  33.8129 326.3007 15.08843884 37758,6917.869000000002,95.437,541.2959999999998,538.1709999999998,0.0
52360.0,STARLINK-3824,PAYLOAD,2022-12-15 15:44:44,15.08842948,0.0002271,53.217,86.5112,33.2414,326.872,7.6212e-05,9.25e-06,0.0,0 STARLINK-3824,1 52360U 22045AF  22349.65607170  .00000925  00000-0  76212-4 0  9999,2 52360  53.2170  86.5112 0002271  33.2414 326.8720 15.08842948 37768,6917.871,95.437,541.307,538.165,0.0
52360.0,STARLINK-3824,PAYLOAD,2022-12-16 12:24:45,15.08845389,0.0002345,53.2179,82.6454,35.7141,324.4007,7.9609e-05,9.79e-06,0.0,0 STARLINK-3824,1 52360U 22045AF  22350.51718891  .00000979  00000-0  79609-4 0  9991,2 52360  53.2179  82.6454 0002345  35.7141 324.4007 15.08845389 37897,6917.864000000001,95.437,541.351,538.107,0.0
52360.0,STARLINK-3824,PAYLOAD,2022-12-16 15:35:31,15.08842647,0.0002307,53.2186,82.0516,34.0222,326.0918,6.5374e-05,7.52e-06,0.0,0 STARLINK-3824,1 52360U 22045AF  22350.64967080  .00000752  00000-0  65374-4 0  9994,2 52360  53.2186  82.0516 0002307  34.0222 326.0918 15.08842647 37914,6917.871999999999,95.437,541.3330000000002,538.141,0.0
52360.0,STARLINK-3824,PAYLOAD,2022-12-16 23:32:27,15.08833238,0.0002307,53.218,80.5638,33.8839,326.23,6.82e-05,7.97e-06,0.0,0 STARLINK-3824,1 52360U 22045AF  22350.98087683  .00000797  00000-0  68200-4 0  9993,2 52360  53.2180  80.5638 0002307  33.8839 326.2300 15.08833238 37965,6917.901,95.438,541.362,538.17,0.0
52360.0,STARLINK-3824,PAYLOAD,2022-12-17 12:15:32,15.0883247,0.0002325,53.2185,78.1853,33.9981,326.116,6.0184e-05,6.69e-06,0.0,0 STARLINK-3824,1 52360U 22045AF  22351.51079859  .00000669  00000-0  60184-4 0  9990,2 52360  53.2185  78.1853 0002325  33.9981 326.1160 15.08832470 38041,6917.903,95.438,541.377,538.16,0.0
52360.0,STARLINK-3824,PAYLOAD,2022-12-17 15:26:18,15.08843065,0.0002316,53.2183,77.5902,38.7208,321.395,1.5209e-05,-4.6e-07,0.0,0 STARLINK-3824,1 52360U 22045AF  22351.64327284 -.00000046  00000-0  15209-4 0  9990,2 52360  53.2183  77.5902 0002316  38.7208 321.3950 15.08843065 38060,6917.871,95.437,541.3380000000002,538.134,0.0
52360.0,STARLINK-3824,PAYLOAD,2022-12-17 18:37:05,15.08843859,0.0002371,53.2186,76.9958,38.6269,321.4893,2.0312e-05,3.5e-07,0.0,0 STARLINK-3824,1 52360U 22045AF  22351.77575240  .00000035  00000-0  20312-4 0  9999,2 52360  53.2186  76.9958 0002371  38.6269 321.4893 15.08843859 38084,6917.869000000002,95.437,541.374,538.0930000000002,0.0
52360.0,STARLINK-3824,PAYLOAD,2022-12-18 12:06:20,15.08835458,0.0002388,53.2188,73.7253,39.7675,320.3492,4.9895e-06,-2.09e-06,0.0,0 STARLINK-3824,1 52360U 22045AF  22352.50439895 -.00000209  00000-0  49895-5 0  9998,2 52360  53.2188  73.7253 0002388  39.7675 320.3492 15.08835458 38191,6917.894,95.438,541.411,538.107,0.0
52360.0,STARLINK-3824,PAYLOAD,2022-12-18 16:52:29,15.08832641,0.0002404,53.2189,72.8335,37.1062,323.0096,-2.2483e-05,-6.46e-06,0.0,0 STARLINK-3824,1 52360U 22045AF  22352.70312229 -.00000646  00000-0 -22483-4 0  9990,2 52360  53.2189  72.8335 0002404  37.1062 323.0096 15.08832641 38229,6917.903,95.438,541.431,538.105,0.0
52360.0,STARLINK-3824,PAYLOAD,2022-12-19 05:35:34,15.08830399,0.0002294,53.2188,70.4546,29.8028,330.3095,0.00010352,1.359e-05,0.0,0 STARLINK-3824,1 52360U 22045AF  22353.23304173  .00001359  00000-0  10352-3 0  9999,2 52360  53.2188  70.4546 0002294  29.8028 330.3095 15.08830399 38300,6917.91,95.438,541.362,538.188,0.0
52360.0,STARLINK-3824,PAYLOAD,2022-12-20 13:23:16,15.08849105,0.0002471,53.2171,64.5075,23.5246,336.5859,0.00020209,2.93e-05,0.0,0 STARLINK-3824,1 52360U 22045AF  22354.55782554  .00002930  00000-0  20209-3 0  9996,2 52360  53.2171  64.5075 0002471  23.5246 336.5859 15.08849105 38506,6917.853,95.437,541.427,538.008,0.0
52360.0,STARLINK-3824,PAYLOAD,2022-12-20 14:58:39,15.0884405,0.0002471,53.2187,64.211,26.2886,333.8231,0.00013996,1.94e-05,0.0,0 STARLINK-3824,1 52360U 22045AF  22354.62407095  .00001940  00000-0  13996-3 0  9993,2 52360  53.2187  64.2110 0002471  26.2886 333.8231 15.08844050 38519,6917.868,95.437,541.442,538.024,0.0
52360.0,STARLINK-3824,PAYLOAD,2022-12-21 05:17:08,15.08838667,0.0002549,53.2188,61.5345,27.4102,332.7025,8.663799999999999e-05,1.091e-05,0.0,0 STARLINK-3824,1 52360U 22045AF  22355.22023619  .00001091  00000-0  86638-4 0  9997,2 52360  53.2188  61.5345 0002549  27.4102 332.7025 15.08838667 38606,6917.884,95.438,541.513,537.986,0.0
52360.0,STARLINK-3824,PAYLOAD,2022-12-21 11:38:42,15.08823468,0.0002444,53.2183,60.3453,23.5225,336.5879,-0.00012045,-2.204e-05,0.0,0 STARLINK-3824,1 52360U 22045AF  22355.48521251 -.00002204  00000-0 -12045-3 0  9999,2 52360  53.2183  60.3453 0002444  23.5225 336.5879 15.08823468 38641,6917.931,95.439,541.487,538.105,0.0
52360.0,STARLINK-3824,PAYLOAD,2022-12-21 21:11:00,15.08833618,0.000243,53.2178,58.5612,24.3136,335.7971,-6.626100000000001e-05,-1.343e-05,0.0,0 STARLINK-3824,1 52360U 22045AF  22355.88264718 -.00001343  00000-0 -66261-4 0  9998,2 52360  53.2178  58.5612 0002430  24.3136 335.7971 15.08833618 38705,6917.9,95.438,541.446,538.0840000000002,0.0
52360.0,STARLINK-3824,PAYLOAD,2022-12-22 11:29:28,15.08839637,0.0002449,53.2168,55.8799,25.2776,334.8335,-4.2011e-05,-9.57e-06,0.0,0 STARLINK-3824,1 52360U 22045AF  22356.47880256 -.00000957  00000-0 -42011-4 0  9992,2 52360  53.2168  55.8799 0002449  25.2776 334.8335 15.08839637 38790,6917.880999999999,95.438,541.441,538.052,0.0
52360.0,STARLINK-3824,PAYLOAD,2022-12-22 14:40:15,15.08834747,0.0002533,53.2169,55.2892,23.9883,336.1227,-8.714399999999999e-05,-1.675e-05,0.0,0 STARLINK-3824,1 52360U 22045AF  22356.61128651 -.00001675  00000-0 -87144-4 0  9996,2 52360  53.2169  55.2892 0002533  23.9883 336.1227 15.08834747 38812,6917.896,95.438,541.514,538.009,0.0
52360.0,STARLINK-3824,PAYLOAD,2022-12-23 12:55:39,15.08826703,0.0002336,53.2171,51.1253,28.147,331.9648,0.00022235,3.251e-05,0.0,0 STARLINK-3824,1 52360U 22045AF  22357.53865075  .00003251  00000-0  22235-3 0  9995,2 52360  53.2171  51.1253 0002336  28.1470 331.9648 15.08826703 38959,6917.920999999999,95.438,541.4019999999998,538.17,0.0
52360.0,STARLINK-3824,PAYLOAD,2022-12-23 16:06:25,15.08826511,0.0002446,53.217,50.5307,26.6664,333.4453,0.00021601,3.15e-05,0.0,0 STARLINK-3824,1 52360U 22045AF  22357.67113236  .00003150  00000-0  21601-3 0  9999,2 52360  53.2170  50.5307 0002446  26.6664 333.4453 15.08826511 38971,6917.922,95.438,541.479,538.094,0.0
52360.0,STARLINK-3824,PAYLOAD,2022-12-24 03:14:07,15.08841501,0.0002552,53.2177,48.4487,24.8496,335.2619,0.00020643,2.999e-05,0.0,0 STARLINK-3824,1 52360U 22045AF  22358.13480585  .00002999  00000-0  20643-3 0  9990,2 52360  53.2177  48.4487 0002552  24.8496 335.2619 15.08841501 39043,6917.876,95.437,541.506,537.975,0.0
52360.0,STARLINK-3824,PAYLOAD,2022-12-24 09:35:39,15.08847472,0.0002592,53.2172,47.2599,26.2613,333.8511,0.00016466,2.334e-05,0.0,0 STARLINK-3824,1 52360U 22045AF  22358.39976238  .00002334  00000-0  16466-3 0  9994,2 52360  53.2172  47.2599 0002592  26.2613 333.8511 15.08847472 39082,6917.858,95.437,541.516,537.929,0.0
52360.0,STARLINK-3824,PAYLOAD,2022-12-24 15:57:12,15.08843913,0.0002556,53.2169,46.0703,26.0019,334.1101,0.0002177,3.178e-05,0.0,0 STARLINK-3824,1 52360U 22045AF  22358.66472305  .00003178  00000-0  21770-3 0  9991,2 52360  53.2169  46.0703 0002556  26.0019 334.1101 15.08843913 39120,6917.868,95.437,541.502,537.965,0.0
52360.0,STARLINK-3824,PAYLOAD,2022-12-25 09:26:27,15.08835158,0.0002936,53.2168,42.8006,24.9876,335.1257,0.00013324,1.832e-05,0.0,0 STARLINK-3824,1 52360U 22045AF  22359.39337036  .00001832  00000-0  13324-3 0  9994,2 52360  53.2168  42.8006 0002936  24.9876 335.1257 15.08835158 39236,6917.895,95.438,541.7909999999998,537.729,0.0
52360.0,STARLINK-3824,PAYLOAD,2022-12-25 14:12:36,15.088358800000002,0.0003026,53.2177,41.9069,21.1839,338.9278,-5.134700000000001e-07,-2.97e-06,0.0,0 STARLINK-3824,1 52360U 22045AF  22359.59209318 -.00000297  00000-0 -51347-6 0  9993,2 52360  53.2177  41.9069 0003026  21.1839 338.9278 15.08835880 39263,6917.893,95.438,541.851,537.665,0.0
52360.0,STARLINK-3824,PAYLOAD,2022-12-26 09:17:14,15.08841848,0.0002602,53.2178,38.3383,25.8542,334.2580000000001,-1.5656e-05,-5.38e-06,0.0,0 STARLINK-3824,1 52360U 22045AF  22360.38696995 -.00000538  00000-0 -15656-4 0  9992,2 52360  53.2178  38.3383 0002602  25.8542 334.2580 15.08841848 39383,6917.875,95.437,541.54,537.94,0.0
52360.0,STARLINK-3824,PAYLOAD,2022-12-26 14:03:23,15.08841651,0.0002634,53.2178,37.446,25.044,335.0680000000001,-2.5936e-05,-7.01e-06,0.0,0 STARLINK-3824,1 52360U 22045AF  22360.58568978 -.00000701  00000-0 -25936-4 0  9997,2 52360  53.2178  37.4460 0002634  25.0440 335.0680 15.08841651 39419,6917.875,95.437,541.563,537.918,0.0
